ARABSAT-7B (BADR-8)     
1 56757U 23075A   26087.83510557  .00000125  00000+0  00000+0 0  9990
2 56757   0.0780  26.0089 0005452 333.0377 153.8207  1.00270919 10314
NVS-01 (IRNSS-1J)       
1 56759U 23076A   26087.92697383 -.00000360  00000+0  00000+0 0  9998
2 56759   2.3582 247.7099 0007051  52.8478 348.9908  1.00269381 10315
NUSANTARA TIGA (SATRIA) 
1 57045U 23086A   26087.93018051 -.00000255  00000+0  00000+0 0  9991
2 57045   0.0535 314.2850 0005630  17.1270 335.7758  1.00270034  8958
H2SAT (HEINRICH HERTZ)  
1 57213U 23093A   26087.84836296  .00000000  00000+0  00000+0 0  9992
2 57213   0.0197 191.7494 0001090 271.0469  29.5744  1.00270546 10110
SYRACUSE 4B             
1 57214U 23093B   26087.36780821 -.00000073  00000+0  00000+0 0  9993
2 57214   0.0029  97.8743 0000109 311.8051 262.0226  1.00271768  6153
JUPITER 3 (ECHOSTAR 24) 
1 57479U 23108A   26087.74725464 -.00000170  00000+0  00000+0 0  9995
2 57479   0.0117 201.6610 0001078 164.7363 353.5806  1.00271829  9835
GALAXY 37 (G-37)        
1 57493U 23112A   26087.66222721  .00000000  00000+0  00000+0 0  9996
2 57493   0.0216 183.6736 0002054 183.1648 290.6445  1.00270140  9739
LUDI TANCE-4 01A        
1 57624U 23120A   26082.79837838 -.00000193  00000+0  00000+0 0  9995
2 57624  15.1599 196.0885 0004714 107.8800 254.1792  1.00275144  9691
TJS-10                  
1 58204U 23169A   26087.72614042 -.00000016  00000+0  00000+0 0  9995
2 58204   2.3379  81.4338 0010684 237.1783 205.4408  0.99756307  8739
ZHONGXING-6E            
1 58253U 23172A   26087.92413837 -.00000381  00000+0  00000+0 0  9999
2 58253   0.0115 133.2152 0002828 238.7245 262.5948  1.00270235  8857
YAOGAN-41               
1 58582U 23197A   26087.92552503 -.00000385  00000+0  00000+0 0  9999
2 58582   3.2774 311.9439 0011547 182.4372 148.3352  1.00275288  8511
OVZON-3                 
1 58698U 24003A   26087.48525919  .00000032  00000+0  00000+0 0  9994
2 58698   0.0104 165.2571 0000306 117.1796 137.8314  1.00273030  6639
INSAT-3DS               
1 58990U 24033A   26087.91755167 -.00000175  00000+0  00000+0 0  9999
2 58990   0.0168 129.3952 0002055 236.8533 232.4682  1.00271581 46261
MERAH PUTIH 2           
1 58995U 24035A   26087.90461389 -.00000377  00000+0  00000+0 0  9999
2 58995   0.0174 203.6928 0000948 187.7130 233.5145  1.00272388  7784
TJS-11                  
1 59020U 24037A   26087.71150553 -.00000390  00000+0  00000+0 0  9993
2 59020   4.3071 326.0927 0005667  58.4793 178.0209  1.00271409  7774
HULIANWAN GAOGUI-01 (H*)
1 59069U 24040A   26086.94489359  .00000137  00000+0  00000+0 0  9991
2 59069   0.0649 321.4159 0004109  45.5362 192.2163  1.00274746  6511
EUTELSAT 36D            
1 59346U 24059A   26087.83709890  .00000136  00000+0  00000+0 0  9992
2 59346   0.0046  92.0530 0000247 275.6946 155.6938  1.00270925  7347
