[{"OBJECT_NAME":"ARABSAT-7B (BADR-8)","OBJECT_ID":"2023-075A","EPOCH":"2026-03-28T20:02:33.121248","MEAN_MOTION":1.00270919,"ECCENTRICITY":0.00054528,"INCLINATION":0.078,"RA_OF_ASC_NODE":26.0089,"ARG_OF_PERICENTER":333.0377,"MEAN_ANOMALY":153.8207,"EPHEMERIS_TYPE":0,"CLASSIFICATION_TYPE":"U","NORAD_CAT_ID":56757,"ELEMENT_SET_NO":999,"REV_AT_EPOCH":1031,"BSTAR":0,"MEAN_MOTION_DOT":1.25e-6,"MEAN_MOTION_DDOT":0},{"OBJECT_NAME":"NVS-01 (IRNSS-1J)","OBJECT_ID":"2023-076A","EPOCH":"2026-03-28T22:14:50.538912","MEAN_MOTION":1.00269381,"ECCENTRICITY":0.00070515,"INCLINATION":2.3582,"RA_OF_ASC_NODE":247.7099,"ARG_OF_PERICENTER":52.8478,"MEAN_ANOMALY":348.9908,"EPHEMERIS_TYPE":0,"CLASSIFICATION_TYPE":"U","NORAD_CAT_ID":56759,"ELEMENT_SET_NO":999,"REV_AT_EPOCH":1031,"BSTAR":0,"MEAN_MOTION_DOT":-3.6e-6,"MEAN_MOTION_DDOT":0},{"OBJECT_NAME":"NUSANTARA TIGA (SATRIA)","OBJECT_ID":"2023-086A","EPOCH":"2026-03-28T22:19:27.596064","MEAN_MOTION":1.00270034,"ECCENTRICITY":0.00056308,"INCLINATION":0.0535,"RA_OF_ASC_NODE":314.285,"ARG_OF_PERICENTER":17.127,"MEAN_ANOMALY":335.7758,"EPHEMERIS_TYPE":0,"CLASSIFICATION_TYPE":"U","NORAD_CAT_ID":57045,"ELEMENT_SET_NO":999,"REV_AT_EPOCH":895,"BSTAR":0,"MEAN_MOTION_DOT":-2.55e-6,"MEAN_MOTION_DDOT":0},{"OBJECT_NAME":"H2SAT (HEINRICH HERTZ)","OBJECT_ID":"2023-093A","EPOCH":"2026-03-28T20:21:38.559744","MEAN_MOTION":1.00270546,"ECCENTRICITY":0.00010902,"INCLINATION":0.0197,"RA_OF_ASC_NODE":191.7494,"ARG_OF_PERICENTER":271.0469,"MEAN_ANOMALY":29.5744,"EPHEMERIS_TYPE":0,"CLASSIFICATION_TYPE":"U","NORAD_CAT_ID":57213,"ELEMENT_SET_NO":999,"REV_AT_EPOCH":1011,"BSTAR":0,"MEAN_MOTION_DOT":0,"MEAN_MOTION_DDOT":0},{"OBJECT_NAME":"SYRACUSE 4B","OBJECT_ID":"2023-093B","EPOCH":"2026-03-28T08:49:38.629344","MEAN_MOTION":1.00271768,"ECCENTRICITY":1.091e-5,"INCLINATION":0.0029,"RA_OF_ASC_NODE":97.8743,"ARG_OF_PERICENTER":311.8051,"MEAN_ANOMALY":262.0226,"EPHEMERIS_TYPE":0,"CLASSIFICATION_TYPE":"U","NORAD_CAT_ID":57214,"ELEMENT_SET_NO":999,"REV_AT_EPOCH":615,"BSTAR":0,"MEAN_MOTION_DOT":-7.3e-7,"MEAN_MOTION_DDOT":0},{"OBJECT_NAME":"JUPITER 3 (ECHOSTAR 24)","OBJECT_ID":"2023-108A","EPOCH":"2026-03-28T17:56:02.800896","MEAN_MOTION":1.00271829,"ECCENTRICITY":0.0001078,"INCLINATION":0.0117,"RA_OF_ASC_NODE":201.661,"ARG_OF_PERICENTER":164.7363,"MEAN_ANOMALY":353.5806,"EPHEMERIS_TYPE":0,"CLASSIFICATION_TYPE":"U","NORAD_CAT_ID":57479,"ELEMENT_SET_NO":999,"REV_AT_EPOCH":983,"BSTAR":0,"MEAN_MOTION_DOT":-1.7e-6,"MEAN_MOTION_DDOT":0},{"OBJECT_NAME":"GALAXY 37 (G-37)","OBJECT_ID":"2023-112A","EPOCH":"2026-03-28T15:53:36.430944","MEAN_MOTION":1.0027014,"ECCENTRICITY":0.00020544,"INCLINATION":0.0216,"RA_OF_ASC_NODE":183.6736,"ARG_OF_PERICENTER":183.1648,"MEAN_ANOMALY":290.6445,"EPHEMERIS_TYPE":0,"CLASSIFICATION_TYPE":"U","NORAD_CAT_ID":57493,"ELEMENT_SET_NO":999,"REV_AT_EPOCH":973,"BSTAR":0,"MEAN_MOTION_DOT":0,"MEAN_MOTION_DDOT":0},{"OBJECT_NAME":"LUDI TANCE-4 01A","OBJECT_ID":"2023-120A","EPOCH":"2026-03-23T19:09:39.892032","MEAN_MOTION":1.00275144,"ECCENTRICITY":0.00047148,"INCLINATION":15.1599,"RA_OF_ASC_NODE":196.0885,"ARG_OF_PERICENTER":107.88,"MEAN_ANOMALY":254.1792,"EPHEMERIS_TYPE":0,"CLASSIFICATION_TYPE":"U","NORAD_CAT_ID":57624,"ELEMENT_SET_NO":999,"REV_AT_EPOCH":969,"BSTAR":0,"MEAN_MOTION_DOT":-1.93e-6,"MEAN_MOTION_DDOT":0},{"OBJECT_NAME":"TJS-10","OBJECT_ID":"2023-169A","EPOCH":"2026-03-28T17:25:38.532288","MEAN_MOTION":0.99756307,"ECCENTRICITY":0.0010684,"INCLINATION":2.3379,"RA_OF_ASC_NODE":81.4338,"ARG_OF_PERICENTER":237.1783,"MEAN_ANOMALY":205.4408,"EPHEMERIS_TYPE":0,"CLASSIFICATION_TYPE":"U","NORAD_CAT_ID":58204,"ELEMENT_SET_NO":999,"REV_AT_EPOCH":873,"BSTAR":0,"MEAN_MOTION_DOT":-1.6e-7,"MEAN_MOTION_DDOT":0},{"OBJECT_NAME":"ZHONGXING-6E","OBJECT_ID":"2023-172A","EPOCH":"2026-03-28T22:10:45.555168","MEAN_MOTION":1.00270235,"ECCENTRICITY":0.0002828,"INCLINATION":0.0115,"RA_OF_ASC_NODE":133.2152,"ARG_OF_PERICENTER":238.7245,"MEAN_ANOMALY":262.5948,"EPHEMERIS_TYPE":0,"CLASSIFICATION_TYPE":"U","NORAD_CAT_ID":58253,"ELEMENT_SET_NO":999,"REV_AT_EPOCH":885,"BSTAR":0,"MEAN_MOTION_DOT":-3.81e-6,"MEAN_MOTION_DDOT":0},{"OBJECT_NAME":"YAOGAN-41","OBJECT_ID":"2023-197A","EPOCH":"2026-03-28T22:12:45.362592","MEAN_MOTION":1.00275288,"ECCENTRICITY":0.00115475,"INCLINATION":3.2774,"RA_OF_ASC_NODE":311.9439,"ARG_OF_PERICENTER":182.4372,"MEAN_ANOMALY":148.3352,"EPHEMERIS_TYPE":0,"CLASSIFICATION_TYPE":"U","NORAD_CAT_ID":58582,"ELEMENT_SET_NO":999,"REV_AT_EPOCH":851,"BSTAR":0,"MEAN_MOTION_DOT":-3.85e-6,"MEAN_MOTION_DDOT":0},{"OBJECT_NAME":"OVZON-3","OBJECT_ID":"2024-003A","EPOCH":"2026-03-28T11:38:46.394016","MEAN_MOTION":1.0027303,"ECCENTRICITY":3.06e-5,"INCLINATION":0.0104,"RA_OF_ASC_NODE":165.2571,"ARG_OF_PERICENTER":117.1796,"MEAN_ANOMALY":137.8314,"EPHEMERIS_TYPE":0,"CLASSIFICATION_TYPE":"U","NORAD_CAT_ID":58698,"ELEMENT_SET_NO":999,"REV_AT_EPOCH":663,"BSTAR":0,"MEAN_MOTION_DOT":3.2e-7,"MEAN_MOTION_DDOT":0},{"OBJECT_NAME":"INSAT-3DS","OBJECT_ID":"2024-033A","EPOCH":"2026-03-28T22:01:16.464288","MEAN_MOTION":1.00271581,"ECCENTRICITY":0.00020559,"INCLINATION":0.0168,"RA_OF_ASC_NODE":129.3952,"ARG_OF_PERICENTER":236.8533,"MEAN_ANOMALY":232.4682,"EPHEMERIS_TYPE":0,"CLASSIFICATION_TYPE":"U","NORAD_CAT_ID":58990,"ELEMENT_SET_NO":999,"REV_AT_EPOCH":4626,"BSTAR":0,"MEAN_MOTION_DOT":-1.75e-6,"MEAN_MOTION_DDOT":0},{"OBJECT_NAME":"MERAH PUTIH 2","OBJECT_ID":"2024-035A","EPOCH":"2026-03-28T21:42:38.640096","MEAN_MOTION":1.00272388,"ECCENTRICITY":9.481e-5,"INCLINATION":0.0174,"RA_OF_ASC_NODE":203.6928,"ARG_OF_PERICENTER":187.713,"MEAN_ANOMALY":233.5145,"EPHEMERIS_TYPE":0,"CLASSIFICATION_TYPE":"U","NORAD_CAT_ID":58995,"ELEMENT_SET_NO":999,"REV_AT_EPOCH":778,"BSTAR":0,"MEAN_MOTION_DOT":-3.77e-6,"MEAN_MOTION_DDOT":0},{"OBJECT_NAME":"TJS-11","OBJECT_ID":"2024-037A","EPOCH":"2026-03-28T17:04:34.077792","MEAN_MOTION":1.00271409,"ECCENTRICITY":0.0005667,"INCLINATION":4.3071,"RA_OF_ASC_NODE":326.0927,"ARG_OF_PERICENTER":58.4793,"MEAN_ANOMALY":178.0209,"EPHEMERIS_TYPE":0,"CLASSIFICATION_TYPE":"U","NORAD_CAT_ID":59020,"ELEMENT_SET_NO":999,"REV_AT_EPOCH":777,"BSTAR":0,"MEAN_MOTION_DOT":-3.9e-6,"MEAN_MOTION_DDOT":0},{"OBJECT_NAME":"HULIANWAN GAOGUI-01 (HG-01)","OBJECT_ID":"2024-040A","EPOCH":"2026-03-27T22:40:38.806176","MEAN_MOTION":1.00274746,"ECCENTRICITY":0.0004109,"INCLINATION":0.0649,"RA_OF_ASC_NODE":321.4159,"ARG_OF_PERICENTER":45.5362,"MEAN_ANOMALY":192.2163,"EPHEMERIS_TYPE":0,"CLASSIFICATION_TYPE":"U","NORAD_CAT_ID":59069,"ELEMENT_SET_NO":999,"REV_AT_EPOCH":651,"BSTAR":0,"MEAN_MOTION_DOT":1.37e-6,"MEAN_MOTION_DDOT":0},{"OBJECT_NAME":"EUTELSAT 36D","OBJECT_ID":"2024-059A","EPOCH":"2026-03-28T20:05:25.344960","MEAN_MOTION":1.00270925,"ECCENTRICITY":2.477e-5,"INCLINATION":0.0046,"RA_OF_ASC_NODE":92.053,"ARG_OF_PERICENTER":275.6946,"MEAN_ANOMALY":155.6938,"EPHEMERIS_TYPE":0,"CLASSIFICATION_TYPE":"U","NORAD_CAT_ID":59346,"ELEMENT_SET_NO":999,"REV_AT_EPOCH":734,"BSTAR":0,"MEAN_MOTION_DOT":1.36e-6,"MEAN_MOTION_DDOT":0}]
